CALSPHERE 1             
1 00900U 64063C   23238.93868819  .00000734  00000+0  76476-3 0  9994
2 00900  90.1888  49.2514 0027605 147.5719  11.2754 13.74443344930463
CALSPHERE 2             
1 00902U 64063E   23238.53649546  .00000079  00000+0  10618-3 0  9994
2 00902  90.2022  52.6379 0017364 330.4562  95.5937 13.52759705718046
LCS 1                   
1 01361U 65034C   23238.84008827  .00000005  00000+0 -47508-3 0  9996
2 01361  32.1414  91.5399 0006524 353.7994   6.2422  9.89303538108341
TEMPSAT 1               
1 01512U 65065E   23238.89991498  .00000056  00000+0  95015-4 0  9990
2 01512  89.9355 215.5500 0067984 247.1913 175.1409 13.33484535823402
CALSPHERE 4A            
1 01520U 65065H   23239.18937743  .00000117  00000+0  20700-3 0  9991
2 01520  89.9674 129.3289 0070572 113.9824 344.2292 13.35984281826248
OPS 5712 (P/L 160)      
1 02826U 67053A   23238.83335273  .00004852  00000+0  11496-2 0  9992
2 02826  69.9289 344.9133 0003025  85.9783 274.1699 14.54581528915949
LES-5                   
1 02866U 67066E   23238.82447302 -.00000106  00000+0  00000+0 0  9991
2 02866   0.7771 183.8928 0052356 104.5664  35.4132  1.09426073119812
SURCAL 159              
1 02872U 67053F   23238.85336501  .00000123  00000+0  12178-3 0  9996
2 02872  69.9745  47.8114 0006746 351.4865   8.6127 13.99062660866760
OPS 5712 (P/L 153)      
1 02874U 67053H   23238.85691251  .00000032  00000+0  61405-4 0  9991
2 02874  69.9745 152.4771 0004698  83.8565 276.3076 13.96498753863612
SURCAL 150B             
1 02909U 67053J   23238.70687580  .00008091  00000+0  13249-2 0  9998
2 02909  69.9457 311.2945 0000779 167.7661 192.3502 14.71080980927440
OPS 3811 (DSP 2)        
1 05204U 71039A   23237.51077139 -.00000072  00000+0  00000+0 0  9999
2 05204   2.4378 284.1604 0018181 346.2087 180.9551  0.98159957196155
RIGIDSPHERE 2 (LCS 4)   
1 05398U 71067E   23238.87634897  .00000831  00000+0  27946-3 0  9998
2 05398  87.6156 262.7088 0063464  30.2724 330.2115 14.34978491726688
OSCAR 7 (AO-7)          
1 07530U 74089B   23238.89072737 -.00000019  00000+0  17081-3 0  9994
2 07530 101.9532 226.0579 0011866 289.6422 137.3777 12.53666385232034
STARLETTE               
1 07646U 75010A   23238.89940792 -.00000143  00000+0 -13927-5 0  9998
2 07646  49.8239 191.5143 0205749 276.0436  81.7048 13.82320942452710
LAGEOS 1                
1 08820U 76039A   23238.31643213 -.00000001  00000+0  00000+0 0  9994
2 08820 109.8088 187.9346 0044853 162.4996 359.3459  6.38664726847626
OPS 8701 (DSP 10)       
1 13086U 82019A   23238.60427730 -.00000198  00000+0  00000+0 0  9992
2 13086  11.3788 317.0829 0004649 216.2663 179.0235  0.98190855 15588
PHASE 3B (AO-10)        
1 14129U 83058B   23236.75432426  .00000136  00000+0  00000+0 0  9998
2 14129  27.3737  26.0078 6033708 198.8809 122.4195  2.05867773274339
UOSAT 2 (UO-11)         
1 14781U 84021B   23238.87414844  .00001618  00000+0  19494-3 0  9999
2 14781  97.6640 213.1000 0007440 341.4030  18.6912 14.85166999104631
AJISAI (EGS)            
1 16908U 86061A   23239.10368906 -.00000091  00000+0  49030-4 0  9997
2 16908  50.0093  59.4653 0011522  91.1768  27.4984 12.44501477353097
TDRS 3                  
1 19548U 88091B   23238.18868899 -.00000294  00000+0  00000+0 0  9992
2 19548  13.3916 348.0208 0034102 331.9463  33.3239  1.00275242115100
COSMOS 1989 (ETALON 1)  
1 19751U 89001C   23238.46160424  .00000021  00000+0  00000+0 0  9997
2 19751  64.4318 107.4147 0023984 214.7254 329.2224  2.13156209269501
COSMOS 2024 (ETALON 2)  
1 20026U 89039C   23238.72260913 -.00000066  00000+0  00000+0 0  9998
2 20026  65.4490 345.6202 0018999 218.0150 148.8705  2.13204269266641
FLTSATCOM 8 (USA 46)    
1 20253U 89077A   23238.73313220 -.00000365  00000+0  00000+0 0  9995
2 20253  12.7270 357.3843 0004638 133.3959 233.5880  1.00269380250342
LUSAT (LO-19)           
1 20442U 90005G   23238.88798624  .00000240  00000+0  10386-3 0  9992
2 20442  98.8505 216.9360 0011257 336.9606  23.1071 14.33302835755536
HST                     
1 20580U 90037B   23238.23387192  .00004445  00000+0  22939-3 0  9991
2 20580  28.4681 161.7268 0002497  57.9642  69.2068 15.13841262632085
SKYNET 4C               
1 20776U 90079A   23238.83313255  .00000128  00000+0  00000+0 0  9994
2 20776  13.6715 356.8560 0003454 162.1281 149.1720  1.00271022120650
USA 65 (DSP 15)         
1 20929U 90095A   23237.93632775 -.00000083  00000+0  00000+0 0  9994
2 20929  14.6456 351.2878 0008046 100.3250 250.8299  0.98397266 15363
TDRS 5                  
1 21639U 91054B   23238.67821565  .00000087  00000+0  00000+0 0  9991
2 21639  14.1983   1.2964 0023033   2.3780  47.8984  1.00270053117436
USA 75 (DSP 16)         
1 21805U 91080B   23237.86299479  .00000073  00000+0  00000+0 0  9993
2 21805  14.5608 352.9361 0008347 104.9612 245.3131  0.99183633 15520
LAGEOS 2                
1 22195U 92070B   23238.58678056 -.00000009  00000+0  00000+0 0  9998
2 22195  52.6403 194.8046 0138764  98.6681  29.4952  6.47294043729020
TDRS 6                  
1 22314U 93003B   23238.21782887 -.00000292  00000+0  00000+0 0  9990
2 22314  14.1531   4.5855 0012170 150.5018 211.7202  1.00274725112127
SCD 1                   
1 22490U 93009B   23238.87205833  .00000553  00000+0  10316-3 0  9998
2 22490  24.9698  53.0904 0042891  94.7044  14.9023 14.44983356612599
UFO 2 (USA 95)          
1 22787U 93056A   23238.83313255  .00000126  00000+0  00000+0 0  9994
2 22787  11.5738   8.8648 0003231 158.3059 136.3029  1.00269413108264
STELLA                  
1 22824U 93061B   23238.92552264 -.00000033  00000+0  53899-5 0  9995
2 22824  98.9241 274.9041 0006003 344.0638 141.6551 14.27408544558502
EYESAT A (AO-27)        
1 22825U 93061C   23238.72153460  .00000128  00000+0  67009-4 0  9990
2 22825  98.8358 282.7303 0007780 216.0191 144.0467 14.30336693560374
ITAMSAT (IO-26)         
1 22826U 93061D   23238.91690236  .00000149  00000+0  74515-4 0  9992
2 22826  98.8303 282.7908 0008581 200.6612 159.4224 14.30701330560671
USA 99 (MILSTAR-1 1)    
1 22988U 94009A   23238.93452001 -.00000200  00000+0  00000+0 0  9994
2 22988  16.0421  38.5324 0002129 120.3935  62.4653  1.00271755 21363
RADIO ROSTO (RS-15)     
1 23439U 94085A   23238.86513726 -.00000051  00000+0 -22605-3 0  9998
2 23439  64.8160 161.3775 0160435 197.8029 161.7232 11.27575500180298
UFO 4 (USA 108)         
1 23467U 95003A   23238.64146406 -.00000022  00000+0  00000+0 0  9991
2 23467   9.7651  16.3766 0005676 132.5828 228.9636  1.00269393104671
AMSC 1                  
1 23553U 95019A   23238.49085456 -.00000094  00000+0  00000+0 0  9993
2 23553  12.3507  23.3285 0005349 132.5996 247.7664  1.00272122103891
TDRS 7                  
1 23613U 95035B   23238.82827351 -.00000198  00000+0  00000+0 0  9998
2 23613  13.8048 355.3255 0026752  70.2023 292.2566  1.00268773102879
USA 115 (MILSTAR-1 2)   
1 23712U 95060A   23238.48288069 -.00000018  00000+0  00000+0 0  9996
2 23712  13.6900  11.1249 0002636 167.9418 209.2726  1.00270157 21360
POLAR                   
1 23802U 96013A   23236.61742447  .00000334  00000+0  00000+0 0  9993
2 23802  78.9353 237.4577 5775989 243.9838  46.8242  1.29847403131519
INMARSAT 3-F1           
1 23839U 96020A   23238.64364837  .00000098  00000+0  00000+0 0  9996
2 23839   8.4408  55.1294 0008480  99.6838 276.1188  0.99984402100009
JAS-2 (FO-29)           
1 24278U 96046B   23238.87695713  .00000012  00000+0  50304-4 0  9990
2 24278  98.5353 207.8220 0349314 233.4490 123.4024 13.53152548334494
INMARSAT 3-F2           
1 24307U 96053A   23238.90727750 -.00000319  00000+0  00000+0 0  9996
2 24307   7.5051  63.5061 0008340  71.7375 275.2277  0.99985969 98702
INMARSAT 3-F3           
1 24674U 96070A   23238.81255093 -.00000113  00000+0  00000+0 0  9990
2 24674   8.0739  58.5730 0006980 100.4440 101.4778  1.00005125 97655
GALAXY 25 (G-25)        
1 24812U 97026A   23238.88143178 -.00000238  00000+0  00000+0 0  9991
2 24812   4.7822  79.2373 0010778  40.2152 151.8752  0.99037346 96061
NAVSTAR 43 (USA 132)    
1 24876U 97035A   23238.12349270 -.00000009  00000+0  00000+0 0  9995
2 24876  55.5853 138.7050 0072139  52.1206 308.5722  2.00563953191373
INTELSAT 5 (IS-5)       
1 24916U 97046A   23238.77530525 -.00000066  00000+0  00000+0 0  9991
2 24916   8.1580  57.8479 0004229 136.9643 225.1993  1.00272319 95342
